{"type": "FeatureCollection", "features": [ {"type": "Feature", "properties": {"norad_id": 34432, "name": "COSMOS 2251 DEB", "group": "cosmos-2251-debris", "lat": -10.856721152509719, "lon": -87.18022683342565, "alt_km": 763.0601963464269, "timestamp": "2025-12-19T22:41:52.790254+00:00", "meta": {"OBJECT_NAME": "COSMOS 2251 DEB", "OBJECT_ID": "1993-036RZ", "EPOCH": "2025-12-19T06:32:24.354240", "MEAN_MOTION": 14.02934229, "ECCENTRICITY": 0.0181953, "INCLINATION": 73.8292, "RA_OF_ASC_NODE": 90.8154, "ARG_OF_PERICENTER": 172.489, "MEAN_ANOMALY": 219.0361, "EPHEMERIS_TYPE": 0, "CLASSIFICATION_TYPE": "U", "NORAD_CAT_ID": 34432, "ELEMENT_SET_NO": 999, "REV_AT_EPOCH": 85776, "BSTAR": 0.00076949, "MEAN_MOTION_DOT": 1.356e-05, "MEAN_MOTION_DDOT": 0}, "tle": {"line1": "1 34432U 93036RZ  25353.27250410  .00001356  00000+0  76949-3 0  9998", "line2": "2 34432  73.8292  90.8154 0181953 172.4890 219.0361 14.02934229857765"}}, "geometry": {"type": "Point", "coordinates": [-87.18022683342565, -10.856721152509719]}}, {"type": "Feature", "properties": {"norad_id": 34433, "name": "COSMOS 2251 DEB", "group": "cosmos-2251-debris", "lat": 63.145480007934474, "lon": -72.31649387275185, "alt_km": 950.4060118461248, "timestamp": "2025-12-19T22:41:52.790264+00:00", "meta": {"OBJECT_NAME": "COSMOS 2251 DEB", "OBJECT_ID": "1993-036SA", "EPOCH": "2025-12-19T10:15:55.503936", "MEAN_MOTION": 14.12879998, "ECCENTRICITY": 0.0152655, "INCLINATION": 74.0099, "RA_OF_ASC_NODE": 143.0939, "ARG_OF_PERICENTER": 279.7612, "MEAN_ANOMALY": 78.6318, "EPHEMERIS_TYPE": 0, "CLASSIFICATION_TYPE": "U", "NORAD_CAT_ID": 34433, "ELEMENT_SET_NO": 999, "REV_AT_EPOCH": 86044, "BSTAR": 0.00077538, "MEAN_MOTION_DOT": 1.585e-05, "MEAN_MOTION_DDOT": 0}, "tle": {"line1": "1 34433U 93036SA  25353.42772574  .00001585  00000+0  77538-3 0  9995", "line2": "2 34433  74.0099 143.0939 0152655 279.7612  78.6318 14.12879998860448"}}, "geometry": {"type": "Point", "coordinates": [-72.31649387275185, 63.145480007934474]}}, {"type": "Feature", "properties": {"norad_id": 34434, "name": "COSMOS 2251 DEB", "group": "cosmos-2251-debris", "lat": 51.77310120950472, "lon": 156.59931889866476, "alt_km": 725.6892382934502, "timestamp": "2025-12-19T22:41:52.790275+00:00", "meta": {"OBJECT_NAME": "COSMOS 2251 DEB", "OBJECT_ID": "1993-036SB", "EPOCH": "2025-12-19T18:55:11.921088", "MEAN_MOTION": 13.8984926, "ECCENTRICITY": 0.0274038, "INCLINATION": 74.0622, "RA_OF_ASC_NODE": 358.1374, "ARG_OF_PERICENTER": 133.7661, "MEAN_ANOMALY": 284.5041, "EPHEMERIS_TYPE": 0, "CLASSIFICATION_TYPE": "U", "NORAD_CAT_ID": 34434, "ELEMENT_SET_NO": 999, "REV_AT_EPOCH": 84064, "BSTAR": 0.0015333, "MEAN_MOTION_DOT": 2.53e-05, "MEAN_MOTION_DDOT": 0}, "tle": {"line1": "1 34434U 93036SB  25353.78833242  .00002530  00000+0  15333-2 0  9990", "line2": "2 34434  74.0622 358.1374 0274038 133.7661 284.5041 13.89849260840649"}}, "geometry": {"type": "Point", "coordinates": [156.59931889866476, 51.77310120950472]}}, {"type": "Feature", "properties": {"norad_id": 34446, "name": "COSMOS 2251 DEB", "group": "cosmos-2251-debris", "lat": 51.35936569098615, "lon": 64.74126678863415, "alt_km": 743.5892213199631, "timestamp": "2025-12-19T22:41:52.790285+00:00", "meta": {"OBJECT_NAME": "COSMOS 2251 DEB", "OBJECT_ID": "1993-036SP", "EPOCH": "2025-12-19T14:09:47.225088", "MEAN_MOTION": 14.4936018, "ECCENTRICITY": 0.0050826, "INCLINATION": 74.0418, "RA_OF_ASC_NODE": 44.4351, "ARG_OF_PERICENTER": 180.8442, "MEAN_ANOMALY": 179.2641, "EPHEMERIS_TYPE": 0, "CLASSIFICATION_TYPE": "U", "NORAD_CAT_ID": 34446, "ELEMENT_SET_NO": 999, "REV_AT_EPOCH": 88793, "BSTAR": 9.0912e-05, "MEAN_MOTION_DOT": 3.25e-06, "MEAN_MOTION_DDOT": 0}, "tle": {"line1": "1 34446U 93036SP  25353.59012992  .00000325  00000+0  90912-4 0  9991", "line2": "2 34446  74.0418  44.4351 0050826 180.8442 179.2641 14.49360180887937"}}, "geometry": {"type": "Point", "coordinates": [64.74126678863415, 51.35936569098615]}}, {"type": "Feature", "properties": {"norad_id": 34449, "name": "COSMOS 2251 DEB", "group": "cosmos-2251-debris", "lat": -50.06235374469431, "lon": 36.024303572785456, "alt_km": 601.4586234949766, "timestamp": "2025-12-19T22:41:52.790295+00:00", "meta": {"OBJECT_NAME": "COSMOS 2251 DEB", "OBJECT_ID": "1993-036SS", "EPOCH": "2025-12-19T05:31:05.790432", "MEAN_MOTION": 14.95222496, "ECCENTRICITY": 0.0022749, "INCLINATION": 74.0328, "RA_OF_ASC_NODE": 57.4655, "ARG_OF_PERICENTER": 95.9476, "MEAN_ANOMALY": 319.8524, "EPHEMERIS_TYPE": 0, "CLASSIFICATION_TYPE": "U", "NORAD_CAT_ID": 34449, "ELEMENT_SET_NO": 999, "REV_AT_EPOCH": 88790, "BSTAR": 0.0015083, "MEAN_MOTION_DOT": 0.00016676, "MEAN_MOTION_DDOT": 0}, "tle": {"line1": "1 34449U 93036SS  25353.22992813  .00016676  00000+0  15083-2 0  9993", "line2": "2 34449  74.0328  57.4655 0022749  95.9476 319.8524 14.95222496887904"}}, "geometry": {"type": "Point", "coordinates": [36.024303572785456, -50.06235374469431]}}, {"type": "Feature", "properties": {"norad_id": 34451, "name": "COSMOS 2251 DEB", "group": "cosmos-2251-debris", "lat": -59.56334339430131, "lon": 44.194753666465346, "alt_km": 600.8960000334309, "timestamp": "2025-12-19T22:41:52.790306+00:00", "meta": {"OBJECT_NAME": "COSMOS 2251 DEB", "OBJECT_ID": "1993-036SU", "EPOCH": "2025-12-19T05:19:40.196928", "MEAN_MOTION": 14.95927956, "ECCENTRICITY": 0.0023833, "INCLINATION": 74.0467, "RA_OF_ASC_NODE": 74.7893, "ARG_OF_PERICENTER": 90.4585, "MEAN_ANOMALY": 269.933, "EPHEMERIS_TYPE": 0, "CLASSIFICATION_TYPE": "U", "NORAD_CAT_ID": 34451, "ELEMENT_SET_NO": 999, "REV_AT_EPOCH": 88732, "BSTAR": 0.0016212, "MEAN_MOTION_DOT": 0.00018267, "MEAN_MOTION_DDOT": 0}, "tle": {"line1": "1 34451U 93036SU  25353.22199302  .00018267  00000+0  16212-2 0  9991", "line2": "2 34451  74.0467  74.7893 0023833  90.4585 269.9330 14.95927956887322"}}, "geometry": {"type": "Point", "coordinates": [44.194753666465346, -59.56334339430131]}}, {"type": "Feature", "properties": {"norad_id": 34452, "name": "COSMOS 2251 DEB", "group": "cosmos-2251-debris", "lat": 71.48017712313647, "lon": -133.361165339671, "alt_km": 566.1111336620988, "timestamp": "2025-12-19T22:41:52.790316+00:00", "meta": {"OBJECT_NAME": "COSMOS 2251 DEB", "OBJECT_ID": "1993-036SV", "EPOCH": "2025-12-19T11:21:06.479424", "MEAN_MOTION": 15.11848064, "ECCENTRICITY": 0.0065194, "INCLINATION": 74.0324, "RA_OF_ASC_NODE": 168.8827, "ARG_OF_PERICENTER": 243.7173, "MEAN_ANOMALY": 145.0832, "EPHEMERIS_TYPE": 0, "CLASSIFICATION_TYPE": "U", "NORAD_CAT_ID": 34452, "ELEMENT_SET_NO": 999, "REV_AT_EPOCH": 90764, "BSTAR": 0.00058782, "MEAN_MOTION_DOT": 0.00010551, "MEAN_MOTION_DDOT": 0}, "tle": {"line1": "1 34452U 93036SV  25353.47299166  .00010551  00000+0  58782-3 0  9995", "line2": "2 34452  74.0324 168.8827 0065194 243.7173 145.0832 15.11848064907649"}}, "geometry": {"type": "Point", "coordinates": [-133.361165339671, 71.48017712313647]}}, {"type": "Feature", "properties": {"norad_id": 34454, "name": "COSMOS 2251 DEB", "group": "cosmos-2251-debris", "lat": 23.16371471949414, "lon": -88.60913902106024, "alt_km": 748.2595019329156, "timestamp": "2025-12-19T22:41:52.790326+00:00", "meta": {"OBJECT_NAME": "COSMOS 2251 DEB", "OBJECT_ID": "1993-036SX", "EPOCH": "2025-12-19T17:34:50.013984", "MEAN_MOTION": 14.38819172, "ECCENTRICITY": 0.0035811, "INCLINATION": 74.0588, "RA_OF_ASC_NODE": 264.7592, "ARG_OF_PERICENTER": 325.9584, "MEAN_ANOMALY": 33.9273, "EPHEMERIS_TYPE": 0, "CLASSIFICATION_TYPE": "U", "NORAD_CAT_ID": 34454, "ELEMENT_SET_NO": 999, "REV_AT_EPOCH": 88168, "BSTAR": 0.00017333, "MEAN_MOTION_DOT": 5.11e-06, "MEAN_MOTION_DDOT": 0}, "tle": {"line1": "1 34454U 93036SX  25353.73252331  .00000511  00000+0  17333-3 0  9991", "line2": "2 34454  74.0588 264.7592 0035811 325.9584  33.9273 14.38819172881685"}}, "geometry": {"type": "Point", "coordinates": [-88.60913902106024, 23.16371471949414]}}, {"type": "Feature", "properties": {"norad_id": 34459, "name": "COSMOS 2251 DEB", "group": "cosmos-2251-debris", "lat": 64.63783494553547, "lon": 24.569788186665953, "alt_km": 1016.4987867083491, "timestamp": "2025-12-19T22:41:52.790336+00:00", "meta": {"OBJECT_NAME": "COSMOS 2251 DEB", "OBJECT_ID": "1993-036TC", "EPOCH": "2025-12-19T10:10:13.091232", "MEAN_MOTION": 14.00510026, "ECCENTRICITY": 0.0192116, "INCLINATION": 74.0787, "RA_OF_ASC_NODE": 242.4962, "ARG_OF_PERICENTER": 310.7776, "MEAN_ANOMALY": 47.6821, "EPHEMERIS_TYPE": 0, "CLASSIFICATION_TYPE": "U", "NORAD_CAT_ID": 34459, "ELEMENT_SET_NO": 999, "REV_AT_EPOCH": 85805, "BSTAR": 0.00028413, "MEAN_MOTION_DOT": 4.7e-06, "MEAN_MOTION_DDOT": 0}, "tle": {"line1": "1 34459U 93036TC  25353.42376263  .00000470  00000+0  28413-3 0  9998", "line2": "2 34459  74.0787 242.4962 0192116 310.7776  47.6821 14.00510026858053"}}, "geometry": {"type": "Point", "coordinates": [24.569788186665953, 64.63783494553547]}}, {"type": "Feature", "properties": {"norad_id": 34464, "name": "COSMOS 2251 DEB", "group": "cosmos-2251-debris", "lat": -54.23623690914653, "lon": 39.453893519238385, "alt_km": 483.0137023823545, "timestamp": "2025-12-19T22:41:52.790347+00:00", "meta": {"OBJECT_NAME": "COSMOS 2251 DEB", "OBJECT_ID": "1993-036TH", "EPOCH": "2025-12-19T15:05:33.885024", "MEAN_MOTION": 15.27991349, "ECCENTRICITY": 0.001486, "INCLINATION": 73.9894, "RA_OF_ASC_NODE": 63.623, "ARG_OF_PERICENTER": 245.1324, "MEAN_ANOMALY": 114.8333, "EPHEMERIS_TYPE": 0, "CLASSIFICATION_TYPE": "U", "NORAD_CAT_ID": 34464, "ELEMENT_SET_NO": 999, "REV_AT_EPOCH": 89945, "BSTAR": 0.0016369, "MEAN_MOTION_DOT": 0.00045089, "MEAN_MOTION_DDOT": 0}, "tle": {"line1": "1 34464U 93036TH  25353.62886441  .00045089  00000+0  16369-2 0  9991", "line2": "2 34464  73.9894  63.6230 0014860 245.1324 114.8333 15.27991349899451"}}, "geometry": {"type": "Point", "coordinates": [39.453893519238385, -54.23623690914653]}}]}